{"spkid": "50080660", "covariance": {"data": [["3.915416721222097E-12", "-6.212976188634929E-12", "2.180311706028263E-10", "-6.425240026603457E-12", "6.411653364758343E-10", "6.534744163137182E-11"], ["-6.212976188634929E-12", "9.858740661590712E-12", "-3.459117798630137E-10", "1.021567783934599E-11", "-1.017403945653964E-9", "-1.036950479070416E-10"], ["2.180311706028263E-10", "-3.459117798630137E-10", "1.702266283978905E-8", "1.533470982176944E-9", "3.534533807942166E-8", "3.545537523804499E-9"], ["-6.425240026603457E-12", "1.021567783934599E-11", "1.533470982176944E-9", "4.7255847062949E-9", "-5.103157166376901E-9", "-1.868276601046504E-9"], ["6.411653364758343E-10", "-1.017403945653964E-9", "3.534533807942166E-8", "-5.103157166376901E-9", "1.088897460688362E-7", "1.240515276457853E-8"], ["6.534744163137182E-11", "-1.036950479070416E-10", "3.545537523804499E-9", "-1.868276601046504E-9", "1.240515276457853E-8", "2.114440130976788E-9"]], "elements": [{"label": "e", "sigma": 1.97874119611992e-06, "name": "e", "title": "eccentricity", "value": ".7972362568128861", "units": null}, {"label": "q", "title": "perihelion distance", "value": ".3227149268040133", "units": "au", "sigma": 3.13986315969195e-06, "name": "q"}, {"name": "tp", "sigma": 0.000130470927182223, "title": "time of perihelion passage", "value": "2455865.123014726488", "units": "TDB", "label": "tp"}, {"sigma": 6.87428884052372e-05, "name": "om", "title": "longitude of the ascending node", "value": "338.8193961683849", "units": "deg", "label": "node"}, {"name": "w", "sigma": 0.000329984463374923, "units": "deg", "title": "argument of perihelion", "value": "121.5771530180842", "label": "peri"}, {"name": "i", "sigma": 4.59830417760373e-05, "title": "inclination", "value": "5.855756687331215", "units": "deg", "label": "i"}], "labels": ["e", "q", "tp", "node", "peri", "i"], "epoch": "2456113.5"}, "elements": [{"label": "e", "value": ".7970798075740759", "title": "eccentricity", "units": null, "name": "e", "sigma": "1.9738E-6"}, {"label": "a", "units": "au", "title": "semi-major axis", "value": "1.592264026005088", "sigma": "4.1719E-8", "name": "a"}, {"value": ".323102522549829", "title": "perihelion distance", "units": "au", "sigma": "3.1344E-6", "name": "q", "label": "q"}, {"label": "i", "units": "deg", "value": "5.873520415778518", "title": "inclination; angle with respect to x-y ecliptic plane", "sigma": "4.6362E-5", "name": "i"}, {"label": "node", "units": "deg", "title": "longitude of the ascending node", "value": "338.4730245125018", "sigma": "6.8327E-5", "name": "om"}, {"label": "peri", "units": "deg", "value": "121.9494651639616", "title": "argument of perihelion", "name": "w", "sigma": ".00033138"}, {"units": "deg", "title": "mean anomaly", "value": "97.94706542839174", "sigma": ".00017125", "name": "ma", "label": "M"}, {"label": "tp", "sigma": ".00034145", "name": "tp", "units": "TDB", "title": "time of perihelion passage", "value": "2461000.831304925067"}, {"label": "period", "value": "733.8732397197482", "title": "sidereal orbital period", "units": "d", "sigma": "2.8842E-5", "name": "per"}, {"label": "n", "title": "mean motion", "value": ".4905479318710094", "units": "deg/d", "name": "n", "sigma": "1.9279E-8"}, {"value": "2.861425529460347", "title": "aphelion distance", "units": "au", "name": "ad", "sigma": "7.4972E-8", "label": "Q"}], "epoch": "2461200.5"}